start=new Date('2021-09-29T00:00:00.000Z').valueOf();
sats=[{"APOAPSIS":"548.543","CENTER_NAME":"EARTH","RCS_SIZE":"LARGE","GP_ID":"185725932","REV_AT_EPOCH":"2328","PERIOD":"95.593","MEAN_MOTION_DOT":"-0.00000810","LAUNCH_DATE":"2021-05-04","EPOCH":"2021-09-28T18:01:54.505056","CLASSIFICATION_TYPE":"U","ECCENTRICITY":"0.00018800","OBJECT_ID":"2021-038BE","ELEMENT_SET_NO":"999","MEAN_MOTION":"15.06390988","COUNTRY_CODE":"US","SITE":"AFETR","TIME_SYSTEM":"UTC","BSTAR":"-0.00003546400000","FILE":"3133040","OBJECT_TYPE":"PAYLOAD","ARG_OF_PERICENTER":"112.5322","REF_FRAME":"TEME","RA_OF_ASC_NODE":"67.2618","MEAN_ANOMALY":"247.5866","OBJECT_NAME":"STARLINK-2570","MEAN_MOTION_DDOT":"0.0000000000000","SEMIMAJOR_AXIS":"6925.376","EPHEMERIS_TYPE":"0","INCLINATION":"53.0568","TLE_LINE1":"1 48405U 21038BE  21271.75132529 -.00000810  00000-0 -35464-4 0  9999","DECAY_DATE":null,"MEAN_ELEMENT_THEORY":"SGP4","TLE_LINE2":"2 48405  53.0568  67.2618 0001880 112.5322 247.5866 15.06390988 23285","PERIAPSIS":"545.939","NORAD_CAT_ID":"48405"},{"OBJECT_TYPE":"PAYLOAD","SITE":"AFETR","TIME_SYSTEM":"UTC","BSTAR":"0.00052484000000","FILE":"3132662","ELEMENT_SET_NO":"999","OBJECT_ID":"2021-038BF","MEAN_MOTION":"15.06353747","COUNTRY_CODE":"US","LAUNCH_DATE":"2021-05-04","CLASSIFICATION_TYPE":"U","EPOCH":"2021-09-28T13:09:58.828320","ECCENTRICITY":"0.00022120","REV_AT_EPOCH":"2266","PERIOD":"95.595","MEAN_MOTION_DOT":"0.00007535","CENTER_NAME":"EARTH","RCS_SIZE":"LARGE","GP_ID":"185717826","APOAPSIS":"548.887","NORAD_CAT_ID":"48406","PERIAPSIS":"545.823","TLE_LINE1":"1 48406U 21038BF  21271.54859755  .00007535  00000-0  52484-3 0  9993","DECAY_DATE":null,"MEAN_ELEMENT_THEORY":"SGP4","TLE_LINE2":"2 48406  53.0556  68.1681 0002212 104.2197 255.9038 15.06353747 22668","INCLINATION":"53.0556","OBJECT_NAME":"STARLINK-2568","MEAN_MOTION_DDOT":"0.0000000000000","SEMIMAJOR_AXIS":"6925.490","EPHEMERIS_TYPE":"0","MEAN_ANOMALY":"255.9038","ARG_OF_PERICENTER":"104.2197","RA_OF_ASC_NODE":"68.1681","REF_FRAME":"TEME"},{"APOAPSIS":"548.271","RCS_SIZE":"LARGE","GP_ID":"185725944","CENTER_NAME":"EARTH","REV_AT_EPOCH":"2327","MEAN_MOTION_DOT":"0.00001099","PERIOD":"95.592","ECCENTRICITY":"0.00015110","LAUNCH_DATE":"2021-05-04","CLASSIFICATION_TYPE":"U","EPOCH":"2021-09-28T17:51:17.107200","MEAN_MOTION":"15.06396367","COUNTRY_CODE":"US","ELEMENT_SET_NO":"999","OBJECT_ID":"2021-038BG","TIME_SYSTEM":"UTC","BSTAR":"0.00009265000000","FILE":"3133042","SITE":"AFETR","OBJECT_TYPE":"PAYLOAD","REF_FRAME":"TEME","RA_OF_ASC_NODE":"67.3175","ARG_OF_PERICENTER":"120.9019","MEAN_ANOMALY":"239.2118","EPHEMERIS_TYPE":"0","OBJECT_NAME":"STARLINK-2595","MEAN_MOTION_DDOT":"0.0000000000000","SEMIMAJOR_AXIS":"6925.360","INCLINATION":"53.0504","MEAN_ELEMENT_THEORY":"SGP4","TLE_LINE2":"2 48407  53.0504  67.3175 0001511 120.9019 239.2118 15.06396367 23277","TLE_LINE1":"1 48407U 21038BG  21271.74394800  .00001099  00000-0  92650-4 0  9990","DECAY_DATE":null,"PERIAPSIS":"546.178","NORAD_CAT_ID":"48407"},{"TIME_SYSTEM":"UTC","BSTAR":"0.00011509000000","FILE":"3132662","SITE":"AFETR","OBJECT_TYPE":"PAYLOAD","MEAN_MOTION":"15.06396485","COUNTRY_CODE":"US","OBJECT_ID":"2021-038BH","ELEMENT_SET_NO":"999","REV_AT_EPOCH":"2265","PERIOD":"95.592","MEAN_MOTION_DOT":"0.00001433","ECCENTRICITY":"0.00019550","LAUNCH_DATE":"2021-05-04","CLASSIFICATION_TYPE":"U","EPOCH":"2021-09-28T12:59:21.320736","APOAPSIS":"548.578","RCS_SIZE":"LARGE","GP_ID":"185717394","CENTER_NAME":"EARTH","PERIAPSIS":"545.870","NORAD_CAT_ID":"48408","INCLINATION":"53.0533","MEAN_ELEMENT_THEORY":"SGP4","TLE_LINE2":"2 48408  53.0533  68.2062 0001955 105.7373 254.3832 15.06396485 22654","TLE_LINE1":"1 48408U 21038BH  21271.54121899  .00001433  00000-0  11509-3 0  9990","DECAY_DATE":null,"MEAN_ANOMALY":"254.3832","EPHEMERIS_TYPE":"0","OBJECT_NAME":"STARLINK-2592","MEAN_MOTION_DDOT":"0.0000000000000","SEMIMAJOR_AXIS":"6925.359","RA_OF_ASC_NODE":"68.2062","REF_FRAME":"TEME","ARG_OF_PERICENTER":"105.7373"},{"ARG_OF_PERICENTER":"105.3783","RA_OF_ASC_NODE":"72.5038","REF_FRAME":"TEME","OBJECT_NAME":"STARLINK-2596","MEAN_MOTION_DDOT":"0.0000000000000","SEMIMAJOR_AXIS":"6925.360","EPHEMERIS_TYPE":"0","MEAN_ANOMALY":"254.7437","TLE_LINE1":"1 48409U 21038BJ  21271.69741710  .00001176  00000-0  97871-4 0  9998","DECAY_DATE":null,"MEAN_ELEMENT_THEORY":"SGP4","TLE_LINE2":"2 48409  53.0554  72.5038 0002088 105.3783 254.7437 15.06396128 23209","INCLINATION":"53.0554","NORAD_CAT_ID":"48409","PERIAPSIS":"545.779","CENTER_NAME":"EARTH","RCS_SIZE":"LARGE","GP_ID":"185726995","APOAPSIS":"548.671","LAUNCH_DATE":"2021-05-04","CLASSIFICATION_TYPE":"U","EPOCH":"2021-09-28T16:44:16.837440","ECCENTRICITY":"0.00020880","REV_AT_EPOCH":"2320","PERIOD":"95.592","MEAN_MOTION_DOT":"0.00001176","ELEMENT_SET_NO":"999","OBJECT_ID":"2021-038BJ","COUNTRY_CODE":"US","MEAN_MOTION":"15.06396128","OBJECT_TYPE":"PAYLOAD","SITE":"AFETR","TIME_SYSTEM":"UTC","BSTAR":"0.00009787100000","FILE":"3133083"},{"ECCENTRICITY":"0.00045020","CLASSIFICATION_TYPE":"U","EPOCH":"2021-09-28T14:00:01.000224","LAUNCH_DATE":"2021-05-04","PERIOD":"91.532","MEAN_MOTION_DOT":"-0.00000657","REV_AT_EPOCH":"371","GP_ID":"185717500","RCS_SIZE":"LARGE","CENTER_NAME":"EARTH","APOAPSIS":"352.707","OBJECT_TYPE":"PAYLOAD","FILE":"3132662","BSTAR":"-0.00000021538000","TIME_SYSTEM":"UTC","SITE":"AFETR","COUNTRY_CODE":"US","MEAN_MOTION":"15.73228708","ELEMENT_SET_NO":"999","OBJECT_ID":"2021-038BK","EPHEMERIS_TYPE":"0","SEMIMAJOR_AXIS":"6727.813","OBJECT_NAME":"STARLINK-2563","MEAN_MOTION_DDOT":"0.0000000000000","MEAN_ANOMALY":"246.9375","RA_OF_ASC_NODE":"34.6561","REF_FRAME":"TEME","ARG_OF_PERICENTER":"356.3496","NORAD_CAT_ID":"48410","PERIAPSIS":"346.649","TLE_LINE2":"2 48410  53.0486  34.6561 0004502 356.3496 246.9375 15.73228708  3717","MEAN_ELEMENT_THEORY":"SGP4","DECAY_DATE":null,"TLE_LINE1":"1 48410U 21038BK  21271.58334491 -.00000657  00000-0 -21538-6 0  9996","INCLINATION":"53.0486"},{"COUNTRY_CODE":"US","MEAN_MOTION":"15.73214037","ELEMENT_SET_NO":"999","OBJECT_ID":"2021-038BL","OBJECT_TYPE":"PAYLOAD","TIME_SYSTEM":"UTC","FILE":"3133083","BSTAR":"0.00025115000000","SITE":"AFETR","RCS_SIZE":"LARGE","GP_ID":"185727498","CENTER_NAME":"EARTH","APOAPSIS":"352.802","ECCENTRICITY":"0.00045810","LAUNCH_DATE":"2021-05-04","CLASSIFICATION_TYPE":"U","EPOCH":"2021-09-28T22:00:00.999936","REV_AT_EPOCH":"2376","PERIOD":"91.532","MEAN_MOTION_DOT":"0.00034815","MEAN_ELEMENT_THEORY":"SGP4","TLE_LINE2":"2 48411  53.0479  32.9956 0004581 357.1295 335.7868 15.73214037 23763","TLE_LINE1":"1 48411U 21038BL  21271.91667824  .00034815  00000-0  25115-3 0  9996","DECAY_DATE":null,"INCLINATION":"53.0479","NORAD_CAT_ID":"48411","PERIAPSIS":"346.638","REF_FRAME":"TEME","RA_OF_ASC_NODE":"32.9956","ARG_OF_PERICENTER":"357.1295","EPHEMERIS_TYPE":"0","MEAN_MOTION_DDOT":"0.0000000000000","OBJECT_NAME":"STARLINK-2505","SEMIMAJOR_AXIS":"6727.855","MEAN_ANOMALY":"335.7868"},{"PERIAPSIS":"346.576","NORAD_CAT_ID":"48412","INCLINATION":"53.0486","TLE_LINE1":"1 48412U 21038BM  21271.58334491  .00003056  00000-0  26194-4 0  9993","DECAY_DATE":null,"MEAN_ELEMENT_THEORY":"SGP4","TLE_LINE2":"2 48412  53.0486  34.6538 0004675 344.0665 260.5673 15.73213764  3715","MEAN_ANOMALY":"260.5673","MEAN_MOTION_DDOT":"0.0000000000000","OBJECT_NAME":"STARLINK-2581","SEMIMAJOR_AXIS":"6727.856","EPHEMERIS_TYPE":"0","ARG_OF_PERICENTER":"344.0665","REF_FRAME":"TEME","RA_OF_ASC_NODE":"34.6538","SITE":"AFETR","TIME_SYSTEM":"UTC","BSTAR":"0.00002619400000","FILE":"3132662","OBJECT_TYPE":"PAYLOAD","ELEMENT_SET_NO":"999","OBJECT_ID":"2021-038BM","MEAN_MOTION":"15.73213764","COUNTRY_CODE":"US","REV_AT_EPOCH":"371","PERIOD":"91.532","MEAN_MOTION_DOT":"0.00003056","LAUNCH_DATE":"2021-05-04","EPOCH":"2021-09-28T14:00:01.000224","CLASSIFICATION_TYPE":"U","ECCENTRICITY":"0.00046750","APOAPSIS":"352.866","CENTER_NAME":"EARTH","RCS_SIZE":"LARGE","GP_ID":"185717721"},{"TLE_LINE1":"1 48428U 21040A   21271.54631664  .00001694  00000-0  13262-3 0  9998","DECAY_DATE":null,"MEAN_ELEMENT_THEORY":"SGP4","TLE_LINE2":"2 48428  53.0546 273.1816 0000934  75.7792 284.3301 15.06381862 21916","INCLINATION":"53.0546","NORAD_CAT_ID":"48428","PERIAPSIS":"546.622","ARG_OF_PERICENTER":"75.7792","RA_OF_ASC_NODE":"273.1816","REF_FRAME":"TEME","OBJECT_NAME":"STARLINK-2461","MEAN_MOTION_DDOT":"0.0000000000000","SEMIMAJOR_AXIS":"6925.404","EPHEMERIS_TYPE":"0","MEAN_ANOMALY":"284.3301","ELEMENT_SET_NO":"999","OBJECT_ID":"2021-040A","COUNTRY_CODE":"US","MEAN_MOTION":"15.06381862","OBJECT_TYPE":"PAYLOAD","SITE":"AFETR","TIME_SYSTEM":"UTC","FILE":"3132662","BSTAR":"0.00013262000000","CENTER_NAME":"EARTH","RCS_SIZE":"LARGE","GP_ID":"185717396","APOAPSIS":"547.916","LAUNCH_DATE":"2021-05-09","CLASSIFICATION_TYPE":"U","EPOCH":"2021-09-28T13:06:41.757696","ECCENTRICITY":"0.00009340","REV_AT_EPOCH":"2191","MEAN_MOTION_DOT":"0.00001694","PERIOD":"95.593"},{"MEAN_ANOMALY":"285.5363","EPHEMERIS_TYPE":"0","SEMIMAJOR_AXIS":"6907.724","MEAN_MOTION_DDOT":"0.0000000000000","OBJECT_NAME":"STARLINK-2749","REF_FRAME":"TEME","RA_OF_ASC_NODE":"243.0793","ARG_OF_PERICENTER":"52.0798","PERIAPSIS":"528.562","NORAD_CAT_ID":"48429","INCLINATION":"53.0441","TLE_LINE2":"2 48429  53.0441 243.0793 0001487  52.0798 285.5363 15.12168901 23613","MEAN_ELEMENT_THEORY":"SGP4","DECAY_DATE":null,"TLE_LINE1":"1 48429U 21040B   21271.58334491 -.00835750  00000-0 -51386-1 0  9998","PERIOD":"95.227","MEAN_MOTION_DOT":"-0.00835750","REV_AT_EPOCH":"2361","ECCENTRICITY":"0.00014870","CLASSIFICATION_TYPE":"U","EPOCH":"2021-09-28T14:00:01.000224","LAUNCH_DATE":"2021-05-09","APOAPSIS":"530.616","GP_ID":"185683185","RCS_SIZE":"LARGE","CENTER_NAME":"EARTH","FILE":"3132065","BSTAR":"-0.05138600000000","TIME_SYSTEM":"UTC","SITE":"AFETR","OBJECT_TYPE":"PAYLOAD","COUNTRY_CODE":"US","MEAN_MOTION":"15.12168901","ELEMENT_SET_NO":"999","OBJECT_ID":"2021-040B"}];
